0 ECHOSTAR 4
1 25331U 98028A   13283.09139404 -.00000168  00000-0  10000-3 0  8874
2 25331 004.4998 056.5006 0013991 171.1389 188.9660 00.98952280 56513
0 ECHOSTAR 4
1 25331U 98028A   13286.12310685 -.00000231  00000-0  10000-3 0  8885
2 25331 004.5056 056.4821 0014136 171.6553 188.4665 00.98952645 56541
0 ECHOSTAR 4
1 25331U 98028A   13290.16527267  .00000000  00000-0  10000-3 0  8894
2 25331 004.5142 056.4479 0014007 172.3175 187.7664 00.98948191 56587
0 ECHOSTAR 4
1 25331U 98028A   13293.19667048 -.00000232  00000-0  10000-3 0  8890
2 25331 004.5194 056.4407 0014183 172.1015 187.9020 00.98951318 56618
0 ECHOSTAR 4
1 25331U 98028A   13294.20718510 -.00000218  00000-0  10000-3 0  8900
2 25331 004.5215 056.4332 0014303 172.0931 187.8820 00.98950851 56628
0 ECHOSTAR 4
1 25331U 98028A   13295.21776142 -.00000200  00000-0  10000-3 0  8919
2 25331 004.5237 056.4280 0014491 172.7237 187.2474 00.98950444 56636
